# From MPEC 2022-ED3
P/2021 U1 (Wierzchos),e,30.5572,246.7851,145.0732,8.516665,0.0396552,0.71286943,13.9965,09/19.0/2022,2000,g 14.5,4.0
# From MPEC 2022-L66
P/2021 U3 (Attard-Maury),e,69.9588,75.1075,335.2218,4.192107,0.1148300,0.54987724,37.7938,09/19.0/2022,2000,g 15.5,4.0
# From MPEC 2021-W31
C/2021 U4 (Leonard),e,152.8775,241.8126,237.2804,44.66861,0.0033014,0.95998364,0.8949,09/19.0/2022,2000,g 17.0,4.0
# From MPEC 2022-QD9
C/2021 U5 (Catalina),e,39.0506,182.7551,321.4602,217.2349,0.0003078,0.98912199,0.0000,01/26.5899/2022,2000,g 13.0,4.0
# From MPEC 2022-CN4
C/2021 V1 (Rankin),e,71.4540,207.6539,195.1160,619.8916,0.0000639,0.99513868,0.0000,04/30.4010/2022,2000,g 13.0,4.0
# From MPEC 2022-HC2
P/2021 V2 (Fuls),e,12.6941,232.2871,259.8267,9.049627,0.0362041,0.61361637,355.4953,09/19.0/2022,2000,g 10.0,4.0
# From MPEC 2022-S20
C/2021 X1 (Maury-Attard),e,140.1213,10.5843,334.6215,29510,0.0000002,0.99989041,0.0000,05/27.4696/2023,2000,g  7.0,4.0
# From MPEC 2022-RD9
A/2021 X2,h,07/08.1640/2022,137.1499,228.8019,193.2883,1.001563,2.994548,2000,16.0,2.0
# From MPEC 2022-S20
C/2021 Y1 (ATLAS),h,04/30.7022/2023,77.1866,244.7698,245.8085,1.000801,2.032599,2000,7.0,4.0
# From MPEC 2022-ED3
C/2022 A1 (Sarneczky),e,116.5200,285.5259,201.1987,793.8254,0.0000441,0.99842165,0.0000,01/31.1461/2022,2000,g 18.0,4.0
# From MPEC 2022-RD9
C/2022 A2 (PANSTARRS),h,02/18.2567/2023,108.1480,171.5800,88.3616,1.000477,1.735352,2000,9.5,4.0
# From MPEC 2022-M88
C/2022 A3 (Lemmon-ATLAS),e,88.3540,325.4837,234.8497,970.4329,0.0000326,0.99618391,0.0000,09/28.8268/2023,2000,g  8.0,4.0
# From MPEC 2022-K19
P/2022 B1 (Wierzchos),e,10.9906,148.8492,325.4773,5.465552,0.0771353,0.65298792,15.8639,09/19.0/2022,2000,g 16.5,4.0
# From MPEC 2022-K19
A/2022 B3,e,132.0538,286.1853,150.6927,893.1568,0.0000369,0.99585928,0.0000,01/17.6133/2022,2000,g 16.5,2.0
# From MPEC 2022-GA9
C/2022 B4 (Bok),e,20.0439,340.6598,152.9468,385.1484,0.0001304,0.99641833,0.0000,01/29.8897/2022,2000,g 21.0,4.0
# From MPEC 2022-H04
P/2022 C1 (PANSTARRS),e,4.7618,113.1434,9.3615,7.218261,0.0508224,0.44788399,16.1878,09/19.0/2022,2000,g 12.0,4.0
# From MPEC 2022-OB6
P/2022 C2 (PANSTARRS),e,9.9797,135.2708,89.3000,6.046107,0.0662965,0.44254815,2.8788,09/19.0/2022,2000,g 12.5,4.0
# From MPEC 2022-OB6
P/2022 C3 (PANSTARRS),e,12.8160,139.0572,93.9406,9.647792,0.0328899,0.54657968,2.6234,09/19.0/2022,2000,g 11.5,4.0
# From MPEC 2022-K19
P/2022 D1 (PANSTARRS),e,44.0688,47.9602,88.7010,7.401381,0.0489480,0.54708079,18.9415,09/19.0/2022,2000,g 12.5,4.0
# From MPEC 2022-K19
C/2022 D2 (Kowalski),e,22.6541,312.4667,177.7882,367.5796,0.0001399,0.99576943,0.0000,03/27.5714/2022,2000,g 17.0,4.0
# From MPEC 2022-L66
P/2022 E1 (Christensen),e,19.0042,113.3462,115.0899,3.781512,0.1340312,0.22112033,13.4594,09/19.0/2022,2000,g 13.5,4.0
# From MPEC 2022-O01
C/2022 E2 (ATLAS),h,09/13.7905/2024,137.1423,125.3567,41.6709,1.001439,3.666717,2000,5.0,4.0
# From MPEC 2022-S20
C/2022 E3 (ZTF),h,01/12.7854/2023,109.1688,302.5542,145.8147,1.000291,1.112245,2000,7.5,4.0
# From MPEC 2022-S20
C/2022 F1 (ATLAS),e,57.9717,350.6585,278.2596,113453,0.0000000,0.99994734,0.0000,08/05.0791/2022,2000,g  7.0,4.0
# From MPEC 2022-QD9
C/2022 F2 (NEOWISE),e,97.2937,58.6962,200.6280,23.90490,0.0084328,0.93369531,1.5141,09/19.0/2022,2000,g 14.5,4.0
# From MPEC 2022-P82
C/2022 H1 (PANSTARRS),e,49.8713,6.3683,246.2667,1060,0.0000286,0.99274233,0.0000,01/18.8570/2024,2000,g  6.0,4.0
# From MPEC 2022-QD9
C/2022 J1 (Maury-Attard),e,105.9308,280.7234,305.6612,47.62092,0.0029992,0.96631199,0.6357,09/19.0/2022,2000,g 14.9,4.0
# From MPEC 2022-N37
C/2022 J2 (Bok),e,149.0909,252.5499,133.0989,90.34098,0.0011478,0.97978029,0.0000,10/27.1132/2022,2000,g 15.5,4.0
# From MPEC 2022-S20
C/2022 K1 (Leonard),h,12/17.4112/2021,41.9755,136.2938,142.6506,1.002865,3.987024,2000,11.0,4.0
# From MPEC 2022-S20
C/2022 L1 (Catalina),e,123.4689,300.0249,59.8537,540.9963,0.0000783,0.99705818,0.0000,09/28.2486/2022,2000,g 15.8,4.0
# From MPEC 2022-S20
C/2022 L2 (ATLAS),h,03/12.4146/2024,129.3123,39.2469,199.9778,1.000979,2.691200,2000,6.5,4.0
# From MPEC 2022-S20
P/2022 L3 (ATLAS),e,21.5415,29.8050,10.3261,6.512118,0.0593090,0.62839823,357.5712,09/19.0/2022,2000,g 16.5,4.0
# From MPEC 2022-N37
C/2022 L4 (PANSTARRS),e,141.2296,66.0497,125.3197,271.3049,0.0002206,0.98888715,0.0000,12/08.7232/2021,2000,g 14.0,4.0
# From MPEC 2022-S20
P/2022 M1 (LONEOS-PANSTARRS),e,7.0266,322.9205,4.4607,4.891050,0.0911173,0.57853157,4.3409,09/19.0/2022,2000,g 17.0,4.0
# From MPEC 2022-R68
C/2022 N1 (Attard-Maury),e,164.7408,301.8582,41.0731,36.98478,0.0043820,0.95993477,0.0392,09/19.0/2022,2000,g 16.9,4.0
# From MPEC 2022-QD9
C/2022 N2 (PANSTARRS),h,07/31.4625/2025,5.5016,319.7392,75.3394,1.004165,3.826760,2000,6.0,4.0
# From MPEC 2022-RD9
C/2022 O1 (ATLAS),h,02/15.7159/2022,71.0441,49.9087,268.8942,1.005034,7.429529,2000,6.0,4.0
# From MPEC 2022-R68
P/2022 O2 (PANSTARRS),e,9.4260,330.4995,48.6467,6.311172,0.0621640,0.72163575,353.1542,09/19.0/2022,2000,g 16.0,4.0
# From MPEC 2022-S20
C/2022 P1 (NEOWISE),e,154.6080,205.0853,249.9146,18.64316,0.0122440,0.91442495,359.1377,09/19.0/2022,2000,g 13.0,4.0
# From MPEC 2022-S20
P/2022 P2 (ZTF),e,12.4045,291.4011,138.5337,4.833582,0.0927471,0.58690003,6.3034,09/19.0/2022,2000,g 12.5,4.0
# From MPEC 2022-S20
C/2022 P3 (ZTF),e,59.5186,72.2350,0.0870,246.1666,0.0002552,0.98959537,0.0000,07/27.3285/2022,2000,g 12.0,4.0
# From MPEC 2022-S20
C/2022 Q2 (ATLAS),e,151.4636,352.9656,44.2717,29.79207,0.0060611,0.94488508,359.1820,09/19.0/2022,2000,g 13.0,4.0
# From MPEC 2022-RC4
P/2022 R1 (PANSTARRS),e,7.4092,176.1732,222.8085,7.174483,0.0512883,0.50307223,340.0443,09/19.0/2022,2000,g 11.5,4.0
# From  98, 1083
1P/Halley,e,162.1911,59.2479,112.1687,17.87087,0.0130462,0.96653485,174.2496,09/19.0/2022,2000,g  4.0,6.0
# From MPEC 2022-S20
2P/Encke,e,11.4166,334.2008,187.1274,2.219688,0.2980342,0.84778842,241.3452,09/19.0/2022,2000,g 11.5,6.0
# From MPEC 2022-PB4
4P/Faye,e,8.0088,192.9250,207.0307,3.825658,0.1317179,0.57678174,49.4081,09/19.0/2022,2000,g  8.0,6.0
# From MPEC 2022-L66
6P/d'Arrest,e,19.5119,138.9350,178.0866,3.496945,0.1507200,0.61259873,55.2049,09/19.0/2022,2000,g  7.5,16.0
# From MPEC 2021-Y10
7P/Pons-Winnecke,e,22.3678,93.3388,172.5604,3.411012,0.1564513,0.63849064,75.0897,09/19.0/2022,2000,g 10.0,6.0
# From MPEC 2022-HC2
8P/Tuttle,e,54.9199,270.1963,207.4789,5.704319,0.0723433,0.82017407,28.0167,09/19.0/2022,2000,g  8.0,8.0
# From MPEC 2022-S20
9P/Tempel,e,10.4695,68.7048,179.3876,3.147273,0.1765235,0.50928038,34.9519,09/19.0/2022,2000,g  5.5,10.0
# From MPEC 2022-HC2
10P/Tempel,e,12.0377,117.8131,195.5159,3.061240,0.1840170,0.53829791,100.0713,09/19.0/2022,2000,g  5.0,10.0
# From MPEC 2022-K19
11P/Tempel-Swift-LINEAR,e,14.4257,238.8805,167.9784,3.283832,0.1656276,0.57736478,109.5715,09/19.0/2022,2000,g 17.0,4.0
# From MPEC 2022-RD9
12P/Pons-Brooks,e,74.1753,255.8263,198.9806,17.17185,0.0138509,0.95449097,351.9637,09/19.0/2022,2000,g  5.0,6.0
# From  27, 604
13P/Olbers,e,44.6167,85.9434,64.3852,16.79741,0.0143166,0.93003877,350.6800,09/19.0/2022,2000,g  5.0,6.0
# From MPEC 2021-F20
14P/Wolf,e,27.9256,202.0411,159.0848,4.258118,0.1121702,0.35719512,196.2777,09/19.0/2022,2000,g  5.5,12.0
# From MPEC 2022-ED3
15P/Finlay,e,6.7980,13.7087,347.8581,3.507569,0.1500357,0.71705628,64.8909,09/19.0/2022,2000,g 12.0,4.0
# From MPEC 2022-C56
16P/Brooks,e,3.0116,138.8694,245.2307,3.658253,0.1408619,0.48643324,73.0526,09/19.0/2022,2000,g  7.5,10.0
# From MPEC 2022-ED3
17P/Holmes,e,19.0304,326.6250,24.5382,3.637216,0.1420857,0.42757860,81.8491,09/19.0/2022,2000,g 10.0,6.0
# From MPEC 2022-S20
19P/Borrelly,e,29.3042,74.2413,351.9269,3.606020,0.1439335,0.63774630,32.9842,09/19.0/2022,2000,g  4.5,10.0
# From MPEC 2021-F20
21P/Giacobini-Zinner,e,32.0572,195.3450,172.8824,3.495100,0.1508393,0.71123343,221.4846,09/19.0/2022,2000,g 11.4,4.0
# From MPEC 2022-S20
22P/Kopff,e,4.7415,120.8215,163.0347,3.442291,0.1543237,0.54906500,28.5262,09/19.0/2022,2000,g  3.0,10.4
# From MPC 14747
23P/Brorsen-Metcalf,e,19.1986,312.1660,129.0313,16.94467,0.0141304,0.97191746,0.0000,08/06.9210/1989,2000,g 10.0,6.0
# From MPC110085
24P/Schaumasse,e,11.5072,78.3744,58.4180,4.054792,0.1207122,0.70771768,214.1647,09/19.0/2022,2000,g  6.5,14.0
# From MPEC 2022-K19
26P/Grigg-Skjellerup,e,22.4322,211.5392,2.1526,3.015045,0.1882623,0.64037897,272.9406,09/19.0/2022,2000,g 12.0,16.0
# From MPC 78188
27P/Crommelin,e,29.3197,250.6513,195.8782,9.181670,0.0354260,0.91880369,144.3644,09/19.0/2022,2000,g 12.0,8.0
# From MPEC 2022-F14
28P/Neujmin,e,14.3118,346.3343,347.4486,6.979599,0.0534513,0.77368903,29.7266,09/19.0/2022,2000,g  8.5,6.0
# From MPEC 2022-S20
29P/Schwassmann-Wachmann,e,9.3650,312.3908,50.5817,6.045605,0.0663047,0.04480998,83.0568,09/19.0/2022,2000,g  4.0,4.0
# From MPEC 2022-K19
30P/Reinmuth,e,8.0821,117.6974,9.4984,3.724771,0.1371055,0.51730051,264.3520,09/19.0/2022,2000,g  9.5,6.0
# From MPEC 2021-F20
31P/Schwassmann-Wachmann,e,4.5480,114.1057,17.9496,4.236166,0.1130432,0.19222082,132.6432,09/19.0/2022,2000,g 13.1,4.0
# From MPEC 2022-K19
32P/ComasSola,e,9.8920,54.7793,54.8817,4.544543,0.1017346,0.55749503,301.0539,09/19.0/2022,2000,g  6.5,8.0
# From MPEC 2013-O31
33P/Daniel,e,22.2949,66.3040,20.4768,4.087470,0.1192675,0.45171317,266.3991,09/19.0/2022,2000,g 10.0,12.0
# From  15, 452
35P/Herschel-Rigollet,e,65.282,356.738,28.962,28.5498,0.006461,0.9742753,0.000,01/30.9053/2092,2000,g  9.0,4.0
# From MPEC 2022-ED3
36P/Whipple,e,9.9528,181.8411,200.9944,4.136319,0.1171610,0.26910622,98.3330,09/19.0/2022,2000,g  8.5,6.0
# From MPEC 2021-F20
37P/Forbes,e,8.9535,314.5668,330.1128,3.461371,0.1530495,0.53324819,244.7380,09/19.0/2022,2000,g 13.8,4.0
# From MPEC 2018-S50
38P/Stephan-Oterma,e,18.3828,77.9181,359.4993,11.23627,0.0261680,0.85931569,36.8293,09/19.0/2022,2000,g  3.5,12.0
# From MPEC 2022-A21
39P/Oterma,e,1.5461,298.1787,99.0916,7.316238,0.0498049,0.21917751,346.4074,09/19.0/2022,2000,g  7.0,6.0
# From MPC100283
